{
  "links" : {
    "next" : "https://api.nasa.gov/neo/rest/v1/feed?start_date=1996-09-23&end_date=1996-09-23&detailed=true&api_key=t0TVs3DtDT2H8Oy2Zy8m2eVrNsAVKAexjcZXUckd",
    "prev" : "https://api.nasa.gov/neo/rest/v1/feed?start_date=1996-09-21&end_date=1996-09-21&detailed=true&api_key=t0TVs3DtDT2H8Oy2Zy8m2eVrNsAVKAexjcZXUckd",
    "self" : "https://api.nasa.gov/neo/rest/v1/feed?start_date=1996-09-22&end_date=1996-09-22&detailed=true&api_key=t0TVs3DtDT2H8Oy2Zy8m2eVrNsAVKAexjcZXUckd"
  },
  "element_count" : 2,
  "near_earth_objects" : {
    "1996-09-22" : [ {
      "links" : {
        "self" : "https://api.nasa.gov/neo/rest/v1/neo/3635077?api_key=t0TVs3DtDT2H8Oy2Zy8m2eVrNsAVKAexjcZXUckd"
      },
      "neo_reference_id" : "3635077",
      "name" : "(2013 HO11)",
      "nasa_jpl_url" : "http://ssd.jpl.nasa.gov/sbdb.cgi?sstr=3635077",
      "absolute_magnitude_h" : 23.0,
      "estimated_diameter" : {
        "kilometers" : {
          "estimated_diameter_min" : 0.0667659413,
          "estimated_diameter_max" : 0.1492931834
        },
        "meters" : {
          "estimated_diameter_min" : 66.7659413495,
          "estimated_diameter_max" : 149.2931834393
        },
        "miles" : {
          "estimated_diameter_min" : 0.0414864197,
          "estimated_diameter_max" : 0.0927664547
        },
        "feet" : {
          "estimated_diameter_min" : 219.0483710172,
          "estimated_diameter_max" : 489.807047955
        }
      },
      "is_potentially_hazardous_asteroid" : false,
      "close_approach_data" : [ {
        "close_approach_date" : "1996-09-22",
        "epoch_date_close_approach" : 843375600000,
        "relative_velocity" : {
          "kilometers_per_second" : "5.493440713",
          "kilometers_per_hour" : "19776.3865668791",
          "miles_per_hour" : "12288.2775309588"
        },
        "miss_distance" : {
          "astronomical" : "0.0638204426",
          "lunar" : "24.8261528015",
          "kilometers" : "9547403",
          "miles" : "5932481"
        },
        "orbiting_body" : "Earth"
      } ],
      "orbital_data" : {
        "orbit_id" : "22",
        "orbit_determination_date" : "2017-04-06 08:46:03",
        "orbit_uncertainty" : "5",
        "minimum_orbit_intersection" : ".00595383",
        "jupiter_tisserand_invariant" : "5.286",
        "epoch_osculation" : "2458000.5",
        "eccentricity" : ".23408163157833",
        "semi_major_axis" : "1.194534303944522",
        "inclination" : "3.718684574314978",
        "ascending_node_longitude" : "59.05328027184399",
        "orbital_period" : "476.8660078567918",
        "perihelion_distance" : ".9149157651009031",
        "perihelion_argument" : "245.9293020818884",
        "aphelion_distance" : "1.47415284278814",
        "perihelion_time" : "2457924.766235596258",
        "mean_anomaly" : "57.17361845077212",
        "mean_motion" : ".7549290452007056",
        "equinox" : "J2000"
      }
    }, {
      "links" : {
        "self" : "https://api.nasa.gov/neo/rest/v1/neo/3685269?api_key=t0TVs3DtDT2H8Oy2Zy8m2eVrNsAVKAexjcZXUckd"
      },
      "neo_reference_id" : "3685269",
      "name" : "(2014 QL390)",
      "nasa_jpl_url" : "http://ssd.jpl.nasa.gov/sbdb.cgi?sstr=3685269",
      "absolute_magnitude_h" : 22.2,
      "estimated_diameter" : {
        "kilometers" : {
          "estimated_diameter_min" : 0.096506147,
          "estimated_diameter_max" : 0.2157943048
        },
        "meters" : {
          "estimated_diameter_min" : 96.5061469579,
          "estimated_diameter_max" : 215.7943048444
        },
        "miles" : {
          "estimated_diameter_min" : 0.059966121,
          "estimated_diameter_max" : 0.134088323
        },
        "feet" : {
          "estimated_diameter_min" : 316.6212271853,
          "estimated_diameter_max" : 707.9865871058
        }
      },
      "is_potentially_hazardous_asteroid" : false,
      "close_approach_data" : [ {
        "close_approach_date" : "1996-09-22",
        "epoch_date_close_approach" : 843375600000,
        "relative_velocity" : {
          "kilometers_per_second" : "0.8739483443",
          "kilometers_per_hour" : "3146.2140394318",
          "miles_per_hour" : "1954.9350513347"
        },
        "miss_distance" : {
          "astronomical" : "0.4918220843",
          "lunar" : "191.3188018799",
          "kilometers" : "73575536",
          "miles" : "45717720"
        },
        "orbiting_body" : "Earth"
      } ],
      "orbital_data" : {
        "orbit_id" : "14",
        "orbit_determination_date" : "2017-09-25 06:50:55",
        "orbit_uncertainty" : "0",
        "minimum_orbit_intersection" : ".236234",
        "jupiter_tisserand_invariant" : "3.653",
        "epoch_osculation" : "2458000.5",
        "eccentricity" : ".4021955192091274",
        "semi_major_axis" : "2.084463172600033",
        "inclination" : "3.589637171323773",
        "ascending_node_longitude" : "288.3602268411402",
        "orbital_period" : "1099.233022617398",
        "perihelion_distance" : "1.246101424623858",
        "perihelion_argument" : "34.50321573174632",
        "aphelion_distance" : "2.922824920576208",
        "perihelion_time" : "2457979.921271498960",
        "mean_anomaly" : "6.73955577019888",
        "mean_motion" : ".3275010781088065",
        "equinox" : "J2000"
      }
    } ]
  }
}